NORAD_CAT_ID,OBJECT_NAME,OBJECT_TYPE,EPOCH,MEAN_MOTION,ECCENTRICITY,INCLINATION,RA_OF_ASC_NODE,ARG_OF_PERICENTER,MEAN_ANOMALY,BSTAR,MEAN_MOTION_DOT,MEAN_MOTION_DDOT,TLE_LINE0,TLE_LINE1,TLE_LINE2,SEMIMAJOR_AXIS,PERIOD,APOGEE,PERIGEE,DECAYED
53534.0,STARLINK-4488,PAYLOAD,2023-05-11 01:03:51,15.08844787,0.0001322,53.2188,34.3317,73.8318,286.2819,2.8413e-05,1.64e-06,0.0,0 STARLINK-4488,1 53534U 22101H   23131.04434978  .00000164  00000-0  28413-4 0  9998,2 53534  53.2188  34.3317 0001322  73.8318 286.2819 15.08844787 40123,6917.866,95.437,540.645,538.816,0.0
53534.0,STARLINK-4488,PAYLOAD,2023-05-11 23:19:16,15.08837003,0.0001317,53.2177,30.1715,70.5626,289.5508,5.7059e-05,6.2e-06,0.0,0 STARLINK-4488,1 53534U 22101H   23131.97171507  .00000620  00000-0  57059-4 0  9991,2 53534  53.2177  30.1715 0001317  70.5626 289.5508 15.08837003 40266,6917.89,95.438,540.666,538.843,0.0
53534.0,STARLINK-4488,PAYLOAD,2023-05-12 00:54:39,15.08838133,0.0001177,53.2186,29.8725,76.8501,283.2622,1.3214e-05,-7.8e-07,0.0,0 STARLINK-4488,1 53534U 22101H   23132.03795610 -.00000078  00000-0  13214-4 0  9999,2 53534  53.2186  29.8725 0001177  76.8501 283.2622 15.08838133 40271,6917.886,95.438,540.565,538.937,0.0
53534.0,STARLINK-4488,PAYLOAD,2023-05-12 23:10:02,15.08849726,0.0001211,53.2181,25.7098,64.8174,295.2944,9.93e-05,1.293e-05,0.0,0 STARLINK-4488,1 53534U 22101H   23132.96530846  .00001293  00000-0  99300-4 0  9998,2 53534  53.2181  25.7098 0001211  64.8174 295.2944 15.08849726 40412,6917.851,95.437,540.553,538.878,0.0
53534.0,STARLINK-4488,PAYLOAD,2023-05-13 19:50:03,15.08840883,0.000135,53.2185,21.8451,97.6067,262.5078,8.5669e-05,1.076e-05,0.0,0 STARLINK-4488,1 53534U 22101H   23133.82643267  .00001076  00000-0  85669-4 0  9998,2 53534  53.2185  21.8451 0001350  97.6067 262.5078 15.08840883 40549,6917.878,95.437,540.677,538.809,0.0
53534.0,STARLINK-4488,PAYLOAD,2023-05-13 21:25:26,15.08847871,0.000118,53.2183,21.5493,87.9532,272.1595,-9.1515e-06,-4.34e-06,0.0,0 STARLINK-4488,1 53534U 22101H   23133.89267168 -.00000434  00000-0 -91515-5 0  9994,2 53534  53.2183  21.5493 0001180  87.9532 272.1595 15.08847871 40556,6917.856,95.437,540.538,538.905,0.0
53534.0,STARLINK-4488,PAYLOAD,2023-05-13 23:00:50,15.08840789,0.0001253,53.2182,21.249,88.656,271.4576,8.1143e-05,1.004e-05,0.0,0 STARLINK-4488,1 53534U 22101H   23133.95891276  .00001004  00000-0  81143-4 0  9991,2 53534  53.2182  21.2490 0001253  88.6560 271.4576 15.08840789 40562,6917.878,95.438,540.61,538.876,0.0
53534.0,STARLINK-4488,PAYLOAD,2023-05-14 21:16:14,15.0883894,0.0001383,53.2183,17.0836,101.9727,258.142,1.244e-05,-9e-07,0.0,0 STARLINK-4488,1 53534U 22101H   23134.88627467 -.00000090  00000-0  12440-4 0  9992,2 53534  53.2183  17.0836 0001383 101.9727 258.1420 15.08838940 40700,6917.884,95.438,540.705,538.792,0.0
53534.0,STARLINK-4488,PAYLOAD,2023-05-15 02:02:23,15.08841088,0.0001019,53.2176,16.1952,82.2519,277.8589,0.00010763,1.426e-05,0.0,0 STARLINK-4488,1 53534U 22101H   23135.08499071  .00001426  00000-0  10763-3 0  9991,2 53534  53.2176  16.1952 0001019  82.2519 277.8589 15.08841088 40731,6917.877,95.437,540.447,539.037,0.0
53534.0,STARLINK-4488,PAYLOAD,2023-05-16 01:53:10,15.08837134,0.000121,53.2185,11.7316,87.0984,273.0147,2.0133e-05,3.3e-07,0.0,0 STARLINK-4488,1 53534U 22101H   23136.07859729  .00000033  00000-0  20133-4 0  9997,2 53534  53.2185  11.7316 0001210  87.0984 273.0147 15.08837134 40889,6917.889,95.438,540.591,538.917,0.0
53534.0,STARLINK-4488,PAYLOAD,2023-05-16 22:33:11,15.08838006,0.0001209,53.2182,7.8665,79.2569,280.8559,2.3697e-05,8.9e-07,0.0,0 STARLINK-4488,1 53534U 22101H   23136.93971888  .00000089  00000-0  23697-4 0  9992,2 53534  53.2182   7.8665 0001209  79.2569 280.8559 15.08838006 41017,6917.886,95.438,540.588,538.915,0.0
53534.0,STARLINK-4488,PAYLOAD,2023-05-17 19:13:12,15.08837408,0.0001092,53.2166,4.0022,81.1785,278.9331,3.6959e-05,3e-06,0.0,0 STARLINK-4488,1 53534U 22101H   23137.80084120  .00000300  00000-0  36959-4 0  9994,2 53534  53.2166   4.0022 0001092  81.1785 278.9331 15.08837408 41142,6917.888,95.438,540.509,538.998,0.0
53534.0,STARLINK-4488,PAYLOAD,2023-05-17 20:48:35,15.08838022,0.0001106,53.2174,3.705,80.6605,279.4512,3.8254e-05,3.21e-06,0.0,0 STARLINK-4488,1 53534U 22101H   23137.86708095  .00000321  00000-0  38254-4 0  9997,2 53534  53.2174   3.7050 0001106  80.6605 279.4512 15.08838022 41150,6917.886,95.438,540.517,538.986,0.0
53534.0,STARLINK-4488,PAYLOAD,2023-05-18 01:34:44,15.08842977,0.0001117,53.2176,2.8129,83.8668,276.2451,7.4612e-05,9e-06,0.0,0 STARLINK-4488,1 53534U 22101H   23138.06579657  .00000900  00000-0  74612-4 0  9991,2 53534  53.2176   2.8129 0001117  83.8668 276.2451 15.08842977 41189,6917.871,95.437,540.509,538.964,0.0
53534.0,STARLINK-4488,PAYLOAD,2023-05-18 17:28:36,15.08861991,9.75e-05,53.2179,359.8381,89.3784,270.7319,-0.00028328,-4.796e-05,0.0,0 STARLINK-4488,1 53534U 22101H   23138.72820221 -.00004796  00000-0 -28328-3 0  9991,2 53534  53.2179 359.8381 0000975  89.3784 270.7319 15.08861991 41288,6917.813,95.436,540.353,539.004,0.0
53534.0,STARLINK-4488,PAYLOAD,2023-05-19 17:19:23,15.08842018,0.0001136,53.2183,355.378,92.0067,268.1056,2.1092e-05,4.8e-07,0.0,0 STARLINK-4488,1 53534U 22101H   23139.72180040  .00000048  00000-0  21092-4 0  9996,2 53534  53.2183 355.3780 0001136  92.0067 268.1056 15.08842018 41437,6917.874,95.437,540.525,538.953,0.0
53534.0,STARLINK-4488,PAYLOAD,2023-05-19 20:30:09,15.08842823,0.0001138,53.2182,354.7834,90.9593,269.153,2.9417e-05,1.8e-06,0.0,0 STARLINK-4488,1 53534U 22101H   23139.85427947  .00000180  00000-0  29417-4 0  9996,2 53534  53.2182 354.7834 0001138  90.9593 269.1530 15.08842823 41456,6917.872,95.437,540.524,538.95,0.0
53534.0,STARLINK-4488,PAYLOAD,2023-05-20 17:10:09,15.08848476,0.0001168,53.2176,350.9207,77.0104,283.1018,0.00011611,1.561e-05,0.0,0 STARLINK-4488,1 53534U 22101H   23140.71539140  .00001561  00000-0  11611-3 0  9992,2 53534  53.2176 350.9207 0001168  77.0104 283.1018 15.08848476 41589,6917.854,95.437,540.527,538.911,0.0
53534.0,STARLINK-4488,PAYLOAD,2023-05-20 20:20:55,15.0885496,0.0001167,53.2176,350.3242,94.9124,265.2002,0.00016199,2.292e-05,0.0,0 STARLINK-4488,1 53534U 22101H   23140.84786462  .00002292  00000-0  16199-3 0  9995,2 53534  53.2176 350.3242 0001167  94.9124 265.2002 15.08854960 41603,6917.835,95.437,540.507,538.892,0.0
53534.0,STARLINK-4488,PAYLOAD,2023-05-21 13:50:11,15.08834901,0.0001226,53.2175,347.0548,78.8244,281.2886,-4.1619e-05,-9.5e-06,0.0,0 STARLINK-4488,1 53534U 22101H   23141.57652550 -.00000950  00000-0 -41619-4 0  9993,2 53534  53.2175 347.0548 0001226  78.8244 281.2886 15.08834901 41717,6917.896,95.438,540.609,538.913,0.0
53534.0,STARLINK-4488,PAYLOAD,2023-05-21 17:00:58,15.08830395,7.45e-05,53.2176,346.461,65.0915,295.0154,-6.6312e-05,-1.343e-05,0.0,0 STARLINK-4488,1 53534U 22101H   23141.70900893 -.00001343  00000-0 -66312-4 0  9998,2 53534  53.2176 346.4610 0000745  65.0915 295.0154 15.08830395 41735,6917.91,95.438,540.29,539.259,0.0
53534.0,STARLINK-4488,PAYLOAD,2023-05-21 20:11:45,15.08825177,0.000113,53.2184,345.8624,78.2164,281.8955,-0.00011566,-2.127e-05,0.0,0 STARLINK-4488,1 53534U 22101H   23141.84149532 -.00002127  00000-0 -11566-3 0  9999,2 53534  53.2184 345.8624 0001130  78.2164 281.8955 15.08825177 41759,6917.926,95.438,540.572,539.009,0.0
53534.0,STARLINK-4488,PAYLOAD,2023-05-22 13:40:59,15.08842138,0.0001021,53.2186,342.5927,68.5967,291.5134,-7.4703e-05,-1.477e-05,0.0,0 STARLINK-4488,1 53534U 22101H   23142.57012768 -.00001477  00000-0 -74703-4 0  9990,2 53534  53.2186 342.5927 0001021  68.5967 291.5134 15.08842138 41868,6917.874,95.437,540.445,539.033,0.0
53534.0,STARLINK-4488,PAYLOAD,2023-05-22 20:02:31,15.08846922,0.0001173,53.2176,341.4043,71.1156,288.9963,3.7328e-05,3.06e-06,0.0,0 STARLINK-4488,1 53534U 22101H   23142.83508168  .00000306  00000-0  37328-4 0  9993,2 53534  53.2176 341.4043 0001173  71.1156 288.9963 15.08846922 41902,6917.859,95.437,540.536,538.913,0.0
53534.0,STARLINK-4488,PAYLOAD,2023-05-23 02:24:04,15.0883939,0.0001208,53.2172,340.2148,76.7695,283.3432,-8.2433e-05,-1.599e-05,0.0,0 STARLINK-4488,1 53534U 22101H   23143.10004697 -.00001599  00000-0 -82433-4 0  9996,2 53534  53.2172 340.2148 0001208  76.7695 283.3432 15.08839390 41944,6917.882,95.438,540.583,538.912,0.0
53534.0,STARLINK-4488,PAYLOAD,2023-05-23 21:28:41,15.08858752,0.0001157,53.2175,336.6455,65.5625,294.5488,0.00058224,8.995e-05,0.0,0 STARLINK-4488,1 53534U 22101H   23143.89492608  .00008995  00000-0  58224-3 0  9990,2 53534  53.2175 336.6455 0001157  65.5625 294.5488 15.08858752 42061,6917.823,95.436,540.488,538.888,0.0
53534.0,STARLINK-4488,PAYLOAD,2023-05-24 05:25:37,15.08847077,0.0001181,53.2174,335.1586,67.0396,293.0721,0.00028254,4.212e-05,0.0,0 STARLINK-4488,1 53534U 22101H   23144.22612728  .00004212  00000-0  28254-3 0  9993,2 53534  53.2174 335.1586 0001181  67.0396 293.0721 15.08847077 42116,6917.859,95.437,540.541,538.907,0.0
53534.0,STARLINK-4488,PAYLOAD,2023-05-24 14:57:56,15.0885089,0.0001082,53.2172,333.3744,80.5582,279.5532,0.00046486,7.12e-05,0.0,0 STARLINK-4488,1 53534U 22101H   23144.62356572  .00007120  00000-0  46486-3 0  9997,2 53534  53.2172 333.3744 0001082  80.5582 279.5532 15.08850890 42179,6917.847,95.437,540.461,538.964,0.0
53534.0,STARLINK-4488,PAYLOAD,2023-05-25 17:59:29,15.0883677,0.0001256,53.2174,328.3197,74.8087,285.3044,0.0001894,2.727e-05,0.0,0 STARLINK-4488,1 53534U 22101H   23145.74965024  .00002727  00000-0  18940-3 0  9991,2 53534  53.2174 328.3197 0001256  74.8087 285.3044 15.08836770 42349,6917.89,95.438,540.624,538.886,0.0
53534.0,STARLINK-4488,PAYLOAD,2023-05-25 21:10:15,15.08841992,0.0001093,53.2171,327.7246,81.0711,279.0405,0.00027297,4.059e-05,0.0,0 STARLINK-4488,1 53534U 22101H   23145.88212863  .00004059  00000-0  27297-3 0  9997,2 53534  53.2171 327.7246 0001093  81.0711 279.0405 15.08841992 42362,6917.874,95.437,540.495,538.983,0.0
